{"type": "FeatureCollection", "features": [{"type": "Feature", "properties": {"norad_id": 32275, "name": "COSMOS 2433 (720)", "group": "glo-ops", "lat": 19.31989037832978, "lon": -29.158886383811602, "alt_km": 19134.976550480427, "timestamp": "2025-12-26T17:24:54.980235+00:00", "meta": {"OBJECT_NAME": "COSMOS 2433 (720)", "OBJECT_ID": "2007-052A", "EPOCH": "2025-12-26T05:29:12.769728", "MEAN_MOTION": 2.1310417, "ECCENTRICITY": 0.00050938, "INCLINATION": 65.676, "RA_OF_ASC_NODE": 321.7529, "ARG_OF_PERICENTER": 257.2732, "MEAN_ANOMALY": 102.6736, "EPHEMERIS_TYPE": 0, "CLASSIFICATION_TYPE": "U", "NORAD_CAT_ID": 32275, "ELEMENT_SET_NO": 999, "REV_AT_EPOCH": 14137, "BSTAR": 0, "MEAN_MOTION_DOT": -3.3e-07, "MEAN_MOTION_DDOT": 0}, "tle": {"line1": "1 32275U 07052A   25360.22862002 -.00000033  00000+0  00000+0 0  9996", "line2": "2 32275  65.6760 321.7529 0005093 257.2732 102.6736  2.13104170141375"}}, "geometry": {"type": "Point", "coordinates": [-29.158886383811602, 19.31989037832978]}}, {"type": "Feature", "properties": {"norad_id": 32276, "name": "COSMOS 2432 (719)", "group": "glo-ops", "lat": -30.907348334574895, "lon": -53.84136509182804, "alt_km": 19105.43654529193, "timestamp": "2025-12-26T17:24:54.980259+00:00", "meta": {"OBJECT_NAME": "COSMOS 2432 (719)", "OBJECT_ID": "2007-052B", "EPOCH": "2025-12-24T04:32:38.772960", "MEAN_MOTION": 2.13103387, "ECCENTRICITY": 0.00113791, "INCLINATION": 65.6931, "RA_OF_ASC_NODE": 321.9458, "ARG_OF_PERICENTER": 314.7871, "MEAN_ANOMALY": 225.1187, "EPHEMERIS_TYPE": 0, "CLASSIFICATION_TYPE": "U", "NORAD_CAT_ID": 32276, "ELEMENT_SET_NO": 999, "REV_AT_EPOCH": 14135, "BSTAR": 0, "MEAN_MOTION_DOT": -3.3e-07, "MEAN_MOTION_DDOT": 0}, "tle": {"line1": "1 32276U 07052B   25358.18933765 -.00000033  00000+0  00000+0 0  9994", "line2": "2 32276  65.6931 321.9458 0011379 314.7871 225.1187  2.13103387141354"}}, "geometry": {"type": "Point", "coordinates": [-53.84136509182804, -30.907348334574895]}}, {"type": "Feature", "properties": {"norad_id": 32393, "name": "COSMOS 2434 (721)", "group": "glo-ops", "lat": -64.23629219219308, "lon": 111.81809534310084, "alt_km": 19148.072642519164, "timestamp": "2025-12-26T17:24:54.980275+00:00", "meta": {"OBJECT_NAME": "COSMOS 2434 (721)", "OBJECT_ID": "2007-065A", "EPOCH": "2025-12-26T03:18:00.211680", "MEAN_MOTION": 2.13101396, "ECCENTRICITY": 0.00048072, "INCLINATION": 64.3159, "RA_OF_ASC_NODE": 197.7509, "ARG_OF_PERICENTER": 72.2168, "MEAN_ANOMALY": 108.4046, "EPHEMERIS_TYPE": 0, "CLASSIFICATION_TYPE": "U", "NORAD_CAT_ID": 32393, "ELEMENT_SET_NO": 999, "REV_AT_EPOCH": 14008, "BSTAR": 0, "MEAN_MOTION_DOT": 1.11e-06, "MEAN_MOTION_DDOT": 0}, "tle": {"line1": "1 32393U 07065A   25360.13750245  .00000111  00000+0  00000+0 0  9992", "line2": "2 32393  64.3159 197.7509 0004807  72.2168 108.4046  2.13101396140085"}}, "geometry": {"type": "Point", "coordinates": [111.81809534310084, -64.23629219219308]}}, {"type": "Feature", "properties": {"norad_id": 32395, "name": "COSMOS 2436 (723)", "group": "glo-ops", "lat": 39.50232668604933, "lon": -138.82138662607358, "alt_km": 19088.00689812764, "timestamp": "2025-12-26T17:24:54.980288+00:00", "meta": {"OBJECT_NAME": "COSMOS 2436 (723)", "OBJECT_ID": "2007-065C", "EPOCH": "2025-12-25T23:03:53.315136", "MEAN_MOTION": 2.13100182, "ECCENTRICITY": 0.00178233, "INCLINATION": 64.3246, "RA_OF_ASC_NODE": 197.8273, "ARG_OF_PERICENTER": 10.3053, "MEAN_ANOMALY": 167.956, "EPHEMERIS_TYPE": 0, "CLASSIFICATION_TYPE": "U", "NORAD_CAT_ID": 32395, "ELEMENT_SET_NO": 999, "REV_AT_EPOCH": 14003, "BSTAR": 0, "MEAN_MOTION_DOT": 1.1e-06, "MEAN_MOTION_DDOT": 0}, "tle": {"line1": "1 32395U 07065C   25359.96103374  .00000110  00000+0  00000+0 0  9997", "line2": "2 32395  64.3246 197.8273 0017823  10.3053 167.9560  2.13100182140039"}}, "geometry": {"type": "Point", "coordinates": [-138.82138662607358, 39.50232668604933]}}, {"type": "Feature", "properties": {"norad_id": 36111, "name": "COSMOS 2456 (730)", "group": "glo-ops", "lat": 57.72204264751968, "lon": 124.67377490459646, "alt_km": 19129.901263175412, "timestamp": "2025-12-26T17:24:54.980300+00:00", "meta": {"OBJECT_NAME": "COSMOS 2456 (730)", "OBJECT_ID": "2009-070A", "EPOCH": "2025-12-26T06:16:15.549312", "MEAN_MOTION": 2.13103733, "ECCENTRICITY": 0.0003681, "INCLINATION": 64.907, "RA_OF_ASC_NODE": 76.8759, "ARG_OF_PERICENTER": 294.867, "MEAN_ANOMALY": 137.8789, "EPHEMERIS_TYPE": 0, "CLASSIFICATION_TYPE": "U", "NORAD_CAT_ID": 36111, "ELEMENT_SET_NO": 999, "REV_AT_EPOCH": 12474, "BSTAR": 0, "MEAN_MOTION_DOT": -8e-08, "MEAN_MOTION_DDOT": 0}, "tle": {"line1": "1 36111U 09070A   25360.26129108 -.00000008  00000+0  00000+0 0  9990", "line2": "2 36111  64.9070  76.8759 0003681 294.8670 137.8789  2.13103733124740"}}, "geometry": {"type": "Point", "coordinates": [124.67377490459646, 57.72204264751968]}}, {"type": "Feature", "properties": {"norad_id": 36112, "name": "COSMOS 2457 (733)", "group": "glo-ops", "lat": -16.27902615689229, "lon": -95.42200092308053, "alt_km": 19123.171765307427, "timestamp": "2025-12-26T17:24:54.980325+00:00", "meta": {"OBJECT_NAME": "COSMOS 2457 (733)", "OBJECT_ID": "2009-070B", "EPOCH": "2025-12-25T12:53:15.895392", "MEAN_MOTION": 2.13101109, "ECCENTRICITY": 0.0004451, "INCLINATION": 64.8923, "RA_OF_ASC_NODE": 76.7479, "ARG_OF_PERICENTER": 163.6164, "MEAN_ANOMALY": 202.4906, "EPHEMERIS_TYPE": 0, "CLASSIFICATION_TYPE": "U", "NORAD_CAT_ID": 36112, "ELEMENT_SET_NO": 999, "REV_AT_EPOCH": 12473, "BSTAR": 0, "MEAN_MOTION_DOT": -5e-08, "MEAN_MOTION_DDOT": 0}, "tle": {"line1": "1 36112U 09070B   25359.53698953 -.00000005  00000+0  00000+0 0  9995", "line2": "2 36112  64.8923  76.7479 0004451 163.6164 202.4906  2.13101109124736"}}, "geometry": {"type": "Point", "coordinates": [-95.42200092308053, -16.27902615689229]}}, {"type": "Feature", "properties": {"norad_id": 36402, "name": "COSMOS 2460 (732)", "group": "glo-ops", "lat": -16.080751234992814, "lon": 147.82856121451113, "alt_km": 19131.748761447172, "timestamp": "2025-12-26T17:24:54.980340+00:00", "meta": {"OBJECT_NAME": "COSMOS 2460 (732)", "OBJECT_ID": "2010-007C", "EPOCH": "2025-12-25T05:13:15.714336", "MEAN_MOTION": 2.13106358, "ECCENTRICITY": 0.00024876, "INCLINATION": 65.5229, "RA_OF_ASC_NODE": 320.3522, "ARG_OF_PERICENTER": 284.3328, "MEAN_ANOMALY": 196.3839, "EPHEMERIS_TYPE": 0, "CLASSIFICATION_TYPE": "U", "NORAD_CAT_ID": 36402, "ELEMENT_SET_NO": 999, "REV_AT_EPOCH": 12302, "BSTAR": 0, "MEAN_MOTION_DOT": -3.2e-07, "MEAN_MOTION_DDOT": 0}, "tle": {"line1": "1 36402U 10007C   25359.21754299 -.00000032  00000+0  00000+0 0  9990", "line2": "2 36402  65.5229 320.3522 0002487 284.3328 196.3839  2.13106358123020"}}, "geometry": {"type": "Point", "coordinates": [147.82856121451113, -16.080751234992814]}}, {"type": "Feature", "properties": {"norad_id": 37867, "name": "COSMOS 2476 (744)", "group": "glo-ops", "lat": -20.28055838017309, "lon": 68.87240935571262, "alt_km": 19146.22871156328, "timestamp": "2025-12-26T17:24:54.980352+00:00", "meta": {"OBJECT_NAME": "COSMOS 2476 (744)", "OBJECT_ID": "2011-064A", "EPOCH": "2025-12-26T06:43:38.713152", "MEAN_MOTION": 2.1310388, "ECCENTRICITY": 0.00245599, "INCLINATION": 65.1691, "RA_OF_ASC_NODE": 78.7136, "ARG_OF_PERICENTER": 235.1002, "MEAN_ANOMALY": 120.5776, "EPHEMERIS_TYPE": 0, "CLASSIFICATION_TYPE": "U", "NORAD_CAT_ID": 37867, "ELEMENT_SET_NO": 999, "REV_AT_EPOCH": 11007, "BSTAR": 0, "MEAN_MOTION_DOT": -6e-08, "MEAN_MOTION_DDOT": 0}, "tle": {"line1": "1 37867U 11064A   25360.28030918 -.00000006  00000+0  00000+0 0  9995", "line2": "2 37867  65.1691  78.7136 0024559 235.1002 120.5776  2.13103880110074"}}, "geometry": {"type": "Point", "coordinates": [68.87240935571262, -20.28055838017309]}}, {"type": "Feature", "properties": {"norad_id": 37868, "name": "COSMOS 2477 (745)", "group": "glo-ops", "lat": 19.901930671739642, "lon": -110.84567790721715, "alt_km": 19115.677584120218, "timestamp": "2025-12-26T17:24:54.980363+00:00", "meta": {"OBJECT_NAME": "COSMOS 2477 (745)", "OBJECT_ID": "2011-064B", "EPOCH": "2025-12-24T15:22:57.950400", "MEAN_MOTION": 2.13103036, "ECCENTRICITY": 0.00215718, "INCLINATION": 65.1748, "RA_OF_ASC_NODE": 78.8466, "ARG_OF_PERICENTER": 235.4688, "MEAN_ANOMALY": 123.4303, "EPHEMERIS_TYPE": 0, "CLASSIFICATION_TYPE": "U", "NORAD_CAT_ID": 37868, "ELEMENT_SET_NO": 999, "REV_AT_EPOCH": 11003, "BSTAR": 0, "MEAN_MOTION_DOT": 1e-08, "MEAN_MOTION_DDOT": 0}, "tle": {"line1": "1 37868U 11064B   25358.64094850  .00000001  00000+0  00000+0 0  9992", "line2": "2 37868  65.1748  78.8466 0021571 235.4688 123.4303  2.13103036110036"}}, "geometry": {"type": "Point", "coordinates": [-110.84567790721715, 19.901930671739642]}}, {"type": "Feature", "properties": {"norad_id": 37869, "name": "COSMOS 2475 (743)", "group": "glo-ops", "lat": 56.11788211017461, "lon": -144.67279199515733, "alt_km": 19172.28423367702, "timestamp": "2025-12-26T17:24:54.980374+00:00", "meta": {"OBJECT_NAME": "COSMOS 2475 (743)", "OBJECT_ID": "2011-064C", "EPOCH": "2025-12-26T02:48:59.782176", "MEAN_MOTION": 2.13101658, "ECCENTRICITY": 0.00268162, "INCLINATION": 65.1822, "RA_OF_ASC_NODE": 78.8169, "ARG_OF_PERICENTER": 249.2724, "MEAN_ANOMALY": 118.1607, "EPHEMERIS_TYPE": 0, "CLASSIFICATION_TYPE": "U", "NORAD_CAT_ID": 37869, "ELEMENT_SET_NO": 999, "REV_AT_EPOCH": 11008, "BSTAR": 0, "MEAN_MOTION_DOT": -5e-08, "MEAN_MOTION_DDOT": 0}, "tle": {"line1": "1 37869U 11064C   25360.11735859 -.00000005  00000+0  00000+0 0  9994", "line2": "2 37869  65.1822  78.8169 0026816 249.2724 118.1607  2.13101658110082"}}, "geometry": {"type": "Point", "coordinates": [-144.67279199515733, 56.11788211017461]}}]}